NORAD_CAT_ID,OBJECT_NAME,OBJECT_TYPE,EPOCH,MEAN_MOTION,ECCENTRICITY,INCLINATION,RA_OF_ASC_NODE,ARG_OF_PERICENTER,MEAN_ANOMALY,BSTAR,MEAN_MOTION_DOT,MEAN_MOTION_DDOT,TLE_LINE0,TLE_LINE1,TLE_LINE2,SEMIMAJOR_AXIS,PERIOD,APOGEE,PERIGEE,DECAYED
51134.0,STARLINK-3183,PAYLOAD,2023-08-24 03:31:12,15.0884549,0.0001397,53.2171,137.5098,102.95,257.1648,-1.4973e-05,-5.26e-06,0.0,0 STARLINK-3183,1 51134U 22005AG  23236.14667755 -.00000526  00000-0 -14973-4 0  9993,2 51134  53.2171 137.5098 0001397 102.9500 257.1648 15.08845490 88705,6917.864,95.437,540.695,538.762,0.0
51134.0,STARLINK-3183,PAYLOAD,2023-08-25 01:46:37,15.08837723,0.000139,53.2182,133.3472,82.5101,277.6048,7.8762e-05,9.66e-06,0.0,0 STARLINK-3183,1 51134U 22005AG  23237.07404252  .00000966  00000-0  78762-4 0  9999,2 51134  53.2182 133.3472 0001390  82.5101 277.6048 15.08837723 89959,6917.887,95.438,540.714,538.791,0.0
51134.0,STARLINK-3183,PAYLOAD,2023-08-25 20:51:14,15.08839535,0.0001327,53.218,129.779,88.0053,272.1091,6.245e-05,7.06e-06,0.0,0 STARLINK-3183,1 51134U 22005AG  23237.86892306  .00000706  00000-0  62450-4 0  9996,2 51134  53.2180 129.7790 0001327  88.0053 272.1091 15.08839535 88967,6917.882,95.438,540.665,538.829,0.0
51134.0,STARLINK-3183,PAYLOAD,2023-08-26 01:37:24,15.08841783,0.0001358,53.2179,128.887,87.4288,272.686,7.9886e-05,9.84e-06,0.0,0 STARLINK-3183,1 51134U 22005AG  23238.06764119  .00000984  00000-0  79886-4 0  9998,2 51134  53.2179 128.8870 0001358  87.4288 272.6860 15.08841783 88991,6917.875,95.437,540.679,538.8,0.0
51134.0,STARLINK-3183,PAYLOAD,2023-08-26 20:42:02,15.08835964,0.0001365,53.2176,125.321,87.6551,272.4598,3.3303e-05,2.42e-06,0.0,0 STARLINK-3183,1 51134U 22005AG  23238.86252797  .00000242  00000-0  33303-4 0  9991,2 51134  53.2176 125.3210 0001365  87.6551 272.4598 15.08835964 89116,6917.893,95.438,540.702,538.813,0.0
51134.0,STARLINK-3183,PAYLOAD,2023-08-27 03:03:34,15.08842464,0.0001356,53.2172,124.1288,80.3962,279.7183,3.9621e-05,3.43e-06,0.0,0 STARLINK-3183,1 51134U 22005AG  23239.12748380  .00000343  00000-0  39621-4 0  9990,2 51134  53.2172 124.1288 0001356  80.3962 279.7183 15.08842464 90261,6917.873,95.437,540.676,538.8,0.0
51134.0,STARLINK-3183,PAYLOAD,2023-08-27 20:32:49,15.08840569,0.0001309,53.2165,120.8576,86.1488,273.9653,2.6325e-05,1.31e-06,0.0,0 STARLINK-3183,1 51134U 22005AG  23239.85612607  .00000131  00000-0  26325-4 0  9994,2 51134  53.2165 120.8576 0001309  86.1488 273.9653 15.08840569 89261,6917.879,95.438,540.649,538.838,0.0
51134.0,STARLINK-3183,PAYLOAD,2023-08-28 21:58:59,15.08841049,0.000126,53.2158,116.0994,91.7085,268.4051,3.1745e-05,2.17e-06,0.0,0 STARLINK-3183,1 51134U 22005AG  23240.91596579  .00000217  00000-0  31745-4 0  9999,2 51134  53.2158 116.0994 0001260  91.7085 268.4051 15.08841049 89428,6917.877,95.437,540.614,538.871,0.0
51134.0,STARLINK-3183,PAYLOAD,2023-08-29 01:09:45,15.08842833,0.0001254,53.2162,115.5049,95.959,264.1545,0.00010361,1.362e-05,0.0,0 STARLINK-3183,1 51134U 22005AG  23241.04844254  .00001362  00000-0  10361-3 0  9992,2 51134  53.2162 115.5049 0001254  95.9590 264.1545 15.08842833 90557,6917.872,95.437,540.604,538.869,0.0
51134.0,STARLINK-3183,PAYLOAD,2023-08-29 09:06:41,15.08842931,0.0001381,53.216,114.019,80.8329,279.282,4.7418e-05,4.67e-06,0.0,0 STARLINK-3183,1 51134U 22005AG  23241.37964442  .00000467  00000-0  47418-4 0  9999,2 51134  53.2160 114.0190 0001381  80.8329 279.2820 15.08842931 89493,6917.871,95.437,540.692,538.781,0.0
51134.0,STARLINK-3183,PAYLOAD,2023-08-30 01:00:32,15.08841418,0.000131,53.2163,111.0447,98.6654,261.4487,7.1478e-05,8.5e-06,0.0,0 STARLINK-3183,1 51134U 22005AG  23242.04204446  .00000850  00000-0  71478-4 0  9994,2 51134  53.2163 111.0447 0001310  98.6654 261.4487 15.08841418 90705,6917.876,95.437,540.647,538.835,0.0
51134.0,STARLINK-3183,PAYLOAD,2023-08-30 08:57:28,15.08835575,0.0001255,53.2168,109.5583,89.3761,270.7375,-6.3433e-05,-1.297e-05,0.0,0 STARLINK-3183,1 51134U 22005AG  23242.37325114 -.00001297  00000-0 -63433-4 0  9996,2 51134  53.2168 109.5583 0001255  89.3761 270.7375 15.08835575 90758,6917.894,95.438,540.627,538.891,0.0
51134.0,STARLINK-3183,PAYLOAD,2023-08-30 23:15:56,15.0884395,0.000139,53.2165,106.8817,85.9652,274.1499,2.9888e-05,1.88e-06,0.0,0 STARLINK-3183,1 51134U 22005AG  23242.96940460  .00000188  00000-0  29888-4 0  9990,2 51134  53.2165 106.8817 0001390  85.9652 274.1499 15.08843950 90847,6917.868,95.437,540.695,538.772,0.0
51134.0,STARLINK-3183,PAYLOAD,2023-09-01 00:42:06,15.08836714,7.18e-05,53.2149,102.1335,276.3659,83.7252,7.6185e-05,9.25e-06,0.0,0 STARLINK-3183,1 51134U 22005AG  23244.02923867  .00000925  00000-0  76185-4 0  9992,2 51134  53.2149 102.1335 0000718 276.3659  83.7252 15.08836714 91009,6917.89,95.438,540.252,539.259,0.0
51134.0,STARLINK-3183,PAYLOAD,2023-09-01 07:03:40,15.08826152,0.0001587,53.214,100.942,90.4527,269.6647,9.7358e-05,1.261e-05,0.0,0 STARLINK-3183,1 51134U 22005AG  23244.29421502  .00001261  00000-0  97358-4 0  9999,2 51134  53.2140 100.9420 0001587  90.4527 269.6647 15.08826152 91047,6917.923,95.438,540.886,538.69,0.0
51134.0,STARLINK-3183,PAYLOAD,2023-09-01 21:22:09,15.087231,0.0003555,53.2113,98.2626,257.7036,102.3558,0.0022381,0.000354,0.0,0 STARLINK-3183,1 51134U 22005AG  23244.89039342  .00035400  00000-0  22381-2 0  9996,2 51134  53.2113  98.2626 0003555 257.7036 102.3558 15.08723100 90024,6918.238,95.445,542.562,537.643,0.0
51134.0,STARLINK-3183,PAYLOAD,2023-09-02 00:32:54,15.08835077,0.0001274,53.2159,97.6637,85.7156,274.3981,6.7722e-07,-2.77e-06,0.0,0 STARLINK-3183,1 51134U 22005AG  23245.02285176 -.00000277  00000-0  67722-6 0  9997,2 51134  53.2159  97.6637 0001274  85.7156 274.3981 15.08835077 91159,6917.895,95.438,540.642,538.879,0.0
51134.0,STARLINK-3183,PAYLOAD,2023-09-02 06:54:27,15.08832342,0.0001254,53.2163,96.4738,82.8775,277.2359,-2.1825e-05,-6.35e-06,0.0,0 STARLINK-3183,1 51134U 22005AG  23245.28781524 -.00000635  00000-0 -21825-4 0  9994,2 51134  53.2163  96.4738 0001254  82.8775 277.2359 15.08832342 90080,6917.904,95.438,540.636,538.901,0.0
51134.0,STARLINK-3183,PAYLOAD,2023-09-02 21:12:54,15.08840914,0.0001173,53.2137,93.7982,92.1141,267.9985,9.0201e-05,1.148e-05,0.0,0 STARLINK-3183,1 51134U 22005AG  23245.88396742  .00001148  00000-0  90201-4 0  9996,2 51134  53.2137  93.7982 0001173  92.1141 267.9985 15.08840914 90178,6917.878,95.437,540.554,538.931,0.0
51134.0,STARLINK-3183,PAYLOAD,2023-09-03 06:45:13,15.08840157,0.0001118,53.215,92.0138,88.9407,271.1713,7.8529e-05,9.62e-06,0.0,0 STARLINK-3183,1 51134U 22005AG  23246.28140896  .00000962  00000-0  78529-4 0  9990,2 51134  53.2150  92.0138 0001118  88.9407 271.1713 15.08840157 90237,6917.88,95.438,540.518,538.971,0.0
51134.0,STARLINK-3183,PAYLOAD,2023-09-03 22:39:05,15.08834508,0.0001337,53.2159,89.0405,90.7685,269.3461,0.00011425,1.531e-05,0.0,0 STARLINK-3183,1 51134U 22005AG  23246.94381400  .00001531  00000-0  11425-3 0  9995,2 51134  53.2159  89.0405 0001337  90.7685 269.3461 15.08834508 91447,6917.897,95.438,540.687,538.837,0.0
51134.0,STARLINK-3183,PAYLOAD,2023-09-04 12:57:34,15.08834404,0.0001362,53.2164,86.3621,80.6224,279.4922,6.142e-05,6.9e-06,0.0,0 STARLINK-3183,1 51134U 22005AG  23247.53997820  .00000690  00000-0  61420-4 0  9996,2 51134  53.2164  86.3621 0001362  80.6224 279.4922 15.08834404 90424,6917.897,95.438,540.705,538.82,0.0
51134.0,STARLINK-3183,PAYLOAD,2023-09-05 00:05:15,15.088389,0.000151,53.2161,84.2813,99.3786,260.7377,6.1167e-05,6.86e-06,0.0,0 STARLINK-3183,1 51134U 22005AG  23248.00365573  .00000686  00000-0  61167-4 0  9996,2 51134  53.2161  84.2813 0001510  99.3786 260.7377 15.08838900 91609,6917.884,95.438,540.793,538.704,0.0
51134.0,STARLINK-3183,PAYLOAD,2023-09-05 12:48:20,15.0883948,0.0001436,53.2168,81.902,86.0451,274.0705,9.5844e-05,1.238e-05,0.0,0 STARLINK-3183,1 51134U 22005AG  23248.53357468  .00001238  00000-0  95844-4 0  9991,2 51134  53.2168  81.9020 0001436  86.0451 274.0705 15.08839480 90571,6917.882,95.438,540.74,538.754,0.0
51134.0,STARLINK-3183,PAYLOAD,2023-09-06 12:39:07,15.08844562,0.0001201,53.2163,77.4415,89.3864,270.7266,6.3241e-05,7.19e-06,0.0,0 STARLINK-3183,1 51134U 22005AG  23249.52717134  .00000719  00000-0  63241-4 0  9990,2 51134  53.2163  77.4415 0001201  89.3864 270.7266 15.08844562 90727,6917.866,95.437,540.562,538.901,0.0
51134.0,STARLINK-3183,PAYLOAD,2023-09-06 20:36:03,15.08846673,0.0001281,53.2165,75.9552,85.2265,274.8873,8.0036e-05,9.86e-06,0.0,0 STARLINK-3183,1 51134U 22005AG  23249.85836884  .00000986  00000-0  80036-4 0  9997,2 51134  53.2165  75.9552 0001281  85.2265 274.8873 15.08846673 90771,6917.86,95.437,540.611,538.839,0.0
51134.0,STARLINK-3183,PAYLOAD,2023-09-07 06:08:22,15.08842556,0.0001308,53.2162,74.1712,81.2,278.914,2.7766e-05,1.54e-06,0.0,0 STARLINK-3183,1 51134U 22005AG  23250.25581189  .00000154  00000-0  27766-4 0  9996,2 51134  53.2162  74.1712 0001308  81.2000 278.9140 15.08842556 90835,6917.873,95.437,540.642,538.833,0.0
51134.0,STARLINK-3183,PAYLOAD,2023-09-07 20:26:50,15.08838866,0.00015,53.2157,71.4949,86.974,273.1424,-5.6575e-06,-3.78e-06,0.0,0 STARLINK-3183,1 51134U 22005AG  23250.85197542 -.00000378  00000-0 -56575-5 0  9999,2 51134  53.2157  71.4949 0001500  86.9740 273.1424 15.08838866 90929,6917.884,95.438,540.787,538.711,0.0
51134.0,STARLINK-3183,PAYLOAD,2023-09-07 22:02:13,15.08839112,0.0001503,53.2157,71.1974,87.2197,272.8967,-4.5478e-06,-3.6e-06,0.0,0 STARLINK-3183,1 51134U 22005AG  23250.91821509 -.00000360  00000-0 -45478-5 0  9994,2 51134  53.2157  71.1974 0001503  87.2197 272.8967 15.08839112 92045,6917.883,95.438,540.788,538.708,0.0
51134.0,STARLINK-3183,PAYLOAD,2023-09-08 20:17:37,15.08841827,0.0001309,53.2177,67.034,82.5845,277.5296,1.7578e-05,-8e-08,0.0,0 STARLINK-3183,1 51134U 22005AG  23251.84557324 -.00000008  00000-0  17578-4 0  9995,2 51134  53.2177  67.0340 0001309  82.5845 277.5296 15.08841827 91075,6917.875,95.437,540.645,538.834,0.0
